FENGYUN 1C DEB          
1 31746U 99025CEV 26063.33501662  .00052214  00000+0  65293-2 0  9999
2 31746  98.5898 196.4474 0021007 296.8295  63.0767 14.81916376982347
FENGYUN 1C DEB          
1 31752U 99025CFB 26064.43180619  .00004970  00000+0  22485-2 0  9995
2 31752  98.9673 139.9555 0356044 107.1988 256.8469 13.93752164947422
FENGYUN 1C DEB          
1 31753U 99025CFC 26064.03883598  .00000542  00000+0  24968-3 0  9998
2 31753  98.6217  99.9619 0157634 296.9825  91.2993 14.18764923971863
FENGYUN 1C DEB          
1 31754U 99025CFD 26063.90197028  .00005193  00000+0  15435-2 0  9995
2 31754  99.0492  39.1195 0049770 336.8255  23.0688 14.42945028981747
FENGYUN 1C DEB          
1 31757U 99025CFG 26058.88385766  .00000212  00000+0  12163-3 0  9990
2 31757  98.7627  83.7829 0216429 226.0203 132.2943 14.08012719649679
FENGYUN 1C DEB          
1 31758U 99025CFH 26062.48401033  .00009122  00000+0  14704-2 0  9999
2 31758  98.0586  72.4145 0306709 203.2788 155.4265 14.44896838953651
FENGYUN 1C DEB          
1 31760U 99025CFK 26064.76566289  .00002013  00000+0  78051-3 0  9998
2 31760  99.2501 172.6672 0050960 318.5675  41.1646 14.30513724973192
FENGYUN 1C DEB          
1 31761U 99025CFL 26064.56764787  .00006811  00000+0  15789-2 0  9998
2 31761  98.6280 289.6845 0469023  29.4352 333.2374 14.04616811592737
FENGYUN 1C DEB          
1 31763U 99025CFN 26064.77019025  .00002842  00000+0  17542-2 0  9990
2 31763  98.5173 166.6928 0546148 214.1943 303.2218 13.50568274921265
FENGYUN 1C DEB          
1 31766U 99025CFR 26063.21024189  .00000572  00000+0  36998-3 0  9993
2 31766  98.8220  63.8014 0075288  62.7584 298.1229 14.05328253652300
FENGYUN 1C DEB          
1 31767U 99025CFS 26064.37605300  .00000555  00000+0  36832-3 0  9990
2 31767  98.8124  96.7481 0040911 196.4944 176.0916 14.05007569959869
FENGYUN 1C DEB          
1 31768U 99025CFT 26064.48266384  .00024202  00000+0  31863-2 0  9991
2 31768  99.0319 152.3670 0024787  87.1379 337.1621 14.79925498980957
FENGYUN 1C DEB          
1 31772U 99025CFX 26064.20827245  .00002584  00000+0  13139-2 0  9990
2 31772  98.4747 342.1717 0133916 238.2778 120.5285 14.12147554720473
FENGYUN 1C DEB          
1 31773U 99025CFY 26060.23969230  .00016918  00000+0  24578-2 0  9996
2 31773  98.9546  64.2905 0037038 297.2989  62.4448 14.75574315663316
FENGYUN 1C DEB          
1 31779U 99025CGE 26062.76297547  .00002689  00000+0  64184-3 0  9995
2 31779  99.3024 354.9592 0211982 305.7075  52.4550 14.41926282981775
FENGYUN 1C DEB          
1 31780U 99025CGF 26064.69887193  .00005245  00000+0  74455-3 0  9996
2 31780  99.2949 233.7565 0149317 158.2053 202.5593 14.70071994997163
