[{"OBJECT_NAME":"FENGYUN 1C DEB","OBJECT_ID":"1999-025CEV","EPOCH":"2026-03-04T08:02:25.435968","MEAN_MOTION":14.81916376,"ECCENTRICITY":0.00210072,"INCLINATION":98.5898,"RA_OF_ASC_NODE":196.4474,"ARG_OF_PERICENTER":296.8295,"MEAN_ANOMALY":63.0767,"EPHEMERIS_TYPE":0,"CLASSIFICATION_TYPE":"U","NORAD_CAT_ID":31746,"ELEMENT_SET_NO":999,"REV_AT_EPOCH":98234,"BSTAR":0.0065293432,"MEAN_MOTION_DOT":0.00052214,"MEAN_MOTION_DDOT":0},{"OBJECT_NAME":"FENGYUN 1C DEB","OBJECT_ID":"1999-025CFB","EPOCH":"2026-03-05T10:21:48.054816","MEAN_MOTION":13.93752164,"ECCENTRICITY":0.0356044,"INCLINATION":98.9673,"RA_OF_ASC_NODE":139.9555,"ARG_OF_PERICENTER":107.1988,"MEAN_ANOMALY":256.8469,"EPHEMERIS_TYPE":0,"CLASSIFICATION_TYPE":"U","NORAD_CAT_ID":31752,"ELEMENT_SET_NO":999,"REV_AT_EPOCH":94742,"BSTAR":0.0022485,"MEAN_MOTION_DOT":4.97e-5,"MEAN_MOTION_DDOT":0},{"OBJECT_NAME":"FENGYUN 1C DEB","OBJECT_ID":"1999-025CFC","EPOCH":"2026-03-05T00:55:55.428672","MEAN_MOTION":14.18764923,"ECCENTRICITY":0.01576347,"INCLINATION":98.6217,"RA_OF_ASC_NODE":99.9619,"ARG_OF_PERICENTER":296.9825,"MEAN_ANOMALY":91.2993,"EPHEMERIS_TYPE":0,"CLASSIFICATION_TYPE":"U","NORAD_CAT_ID":31753,"ELEMENT_SET_NO":999,"REV_AT_EPOCH":97186,"BSTAR":0.00024967884,"MEAN_MOTION_DOT":5.42e-6,"MEAN_MOTION_DDOT":0},{"OBJECT_NAME":"FENGYUN 1C DEB","OBJECT_ID":"1999-025CFD","EPOCH":"2026-03-04T21:38:50.232192","MEAN_MOTION":14.42945028,"ECCENTRICITY":0.00497705,"INCLINATION":99.0492,"RA_OF_ASC_NODE":39.1195,"ARG_OF_PERICENTER":336.8255,"MEAN_ANOMALY":23.0688,"EPHEMERIS_TYPE":0,"CLASSIFICATION_TYPE":"U","NORAD_CAT_ID":31754,"ELEMENT_SET_NO":999,"REV_AT_EPOCH":98174,"BSTAR":0.0015435363,"MEAN_MOTION_DOT":5.193e-5,"MEAN_MOTION_DDOT":0},{"OBJECT_NAME":"FENGYUN 1C DEB","OBJECT_ID":"1999-025CFG","EPOCH":"2026-02-27T21:12:45.301824","MEAN_MOTION":14.08012719,"ECCENTRICITY":0.0216429,"INCLINATION":98.7627,"RA_OF_ASC_NODE":83.7829,"ARG_OF_PERICENTER":226.0203,"MEAN_ANOMALY":132.2943,"EPHEMERIS_TYPE":0,"CLASSIFICATION_TYPE":"U","NORAD_CAT_ID":31757,"ELEMENT_SET_NO":999,"REV_AT_EPOCH":64967,"BSTAR":0.00012163,"MEAN_MOTION_DOT":2.12e-6,"MEAN_MOTION_DDOT":0},{"OBJECT_NAME":"FENGYUN 1C DEB","OBJECT_ID":"1999-025CFH","EPOCH":"2026-03-03T11:36:58.492512","MEAN_MOTION":14.44896838,"ECCENTRICITY":0.03067092,"INCLINATION":98.0586,"RA_OF_ASC_NODE":72.4145,"ARG_OF_PERICENTER":203.2788,"MEAN_ANOMALY":155.4265,"EPHEMERIS_TYPE":0,"CLASSIFICATION_TYPE":"U","NORAD_CAT_ID":31758,"ELEMENT_SET_NO":999,"REV_AT_EPOCH":95365,"BSTAR":0.0014703704,"MEAN_MOTION_DOT":9.122e-5,"MEAN_MOTION_DDOT":0},{"OBJECT_NAME":"FENGYUN 1C DEB","OBJECT_ID":"1999-025CFK","EPOCH":"2026-03-05T18:22:33.273696","MEAN_MOTION":14.30513724,"ECCENTRICITY":0.005096,"INCLINATION":99.2501,"RA_OF_ASC_NODE":172.6672,"ARG_OF_PERICENTER":318.5675,"MEAN_ANOMALY":41.1646,"EPHEMERIS_TYPE":0,"CLASSIFICATION_TYPE":"U","NORAD_CAT_ID":31760,"ELEMENT_SET_NO":999,"REV_AT_EPOCH":97319,"BSTAR":0.00078051,"MEAN_MOTION_DOT":2.013e-5,"MEAN_MOTION_DDOT":0},{"OBJECT_NAME":"FENGYUN 1C DEB","OBJECT_ID":"1999-025CFL","EPOCH":"2026-03-05T13:37:24.775968","MEAN_MOTION":14.04616811,"ECCENTRICITY":0.0469023,"INCLINATION":98.628,"RA_OF_ASC_NODE":289.6845,"ARG_OF_PERICENTER":29.4352,"MEAN_ANOMALY":333.2374,"EPHEMERIS_TYPE":0,"CLASSIFICATION_TYPE":"U","NORAD_CAT_ID":31761,"ELEMENT_SET_NO":999,"REV_AT_EPOCH":59273,"BSTAR":0.0015789,"MEAN_MOTION_DOT":6.811e-5,"MEAN_MOTION_DDOT":0},{"OBJECT_NAME":"FENGYUN 1C DEB","OBJECT_ID":"1999-025CFN","EPOCH":"2026-03-05T18:29:04.437600","MEAN_MOTION":13.50568274,"ECCENTRICITY":0.0546148,"INCLINATION":98.5173,"RA_OF_ASC_NODE":166.6928,"ARG_OF_PERICENTER":214.1943,"MEAN_ANOMALY":303.2218,"EPHEMERIS_TYPE":0,"CLASSIFICATION_TYPE":"U","NORAD_CAT_ID":31763,"ELEMENT_SET_NO":999,"REV_AT_EPOCH":92126,"BSTAR":0.0017542,"MEAN_MOTION_DOT":2.842e-5,"MEAN_MOTION_DDOT":0},{"OBJECT_NAME":"FENGYUN 1C DEB","OBJECT_ID":"1999-025CFR","EPOCH":"2026-03-04T05:02:44.899296","MEAN_MOTION":14.05328253,"ECCENTRICITY":0.00752881,"INCLINATION":98.822,"RA_OF_ASC_NODE":63.8014,"ARG_OF_PERICENTER":62.7584,"MEAN_ANOMALY":298.1229,"EPHEMERIS_TYPE":0,"CLASSIFICATION_TYPE":"U","NORAD_CAT_ID":31766,"ELEMENT_SET_NO":999,"REV_AT_EPOCH":65230,"BSTAR":0.00036998345,"MEAN_MOTION_DOT":5.72e-6,"MEAN_MOTION_DDOT":0},{"OBJECT_NAME":"FENGYUN 1C DEB","OBJECT_ID":"1999-025CFS","EPOCH":"2026-03-05T09:01:30.979200","MEAN_MOTION":14.05007569,"ECCENTRICITY":0.0040911,"INCLINATION":98.8124,"RA_OF_ASC_NODE":96.7481,"ARG_OF_PERICENTER":196.4944,"MEAN_ANOMALY":176.0916,"EPHEMERIS_TYPE":0,"CLASSIFICATION_TYPE":"U","NORAD_CAT_ID":31767,"ELEMENT_SET_NO":999,"REV_AT_EPOCH":95986,"BSTAR":0.00036832,"MEAN_MOTION_DOT":5.55e-6,"MEAN_MOTION_DDOT":0},{"OBJECT_NAME":"FENGYUN 1C DEB","OBJECT_ID":"1999-025CFT","EPOCH":"2026-03-05T11:35:02.155776","MEAN_MOTION":14.79925498,"ECCENTRICITY":0.0024787,"INCLINATION":99.0319,"RA_OF_ASC_NODE":152.367,"ARG_OF_PERICENTER":87.1379,"MEAN_ANOMALY":337.1621,"EPHEMERIS_TYPE":0,"CLASSIFICATION_TYPE":"U","NORAD_CAT_ID":31768,"ELEMENT_SET_NO":999,"REV_AT_EPOCH":98095,"BSTAR":0.0031863,"MEAN_MOTION_DOT":0.00024202,"MEAN_MOTION_DDOT":0},{"OBJECT_NAME":"FENGYUN 1C DEB","OBJECT_ID":"1999-025CFX","EPOCH":"2026-03-05T04:59:54.739680","MEAN_MOTION":14.12147554,"ECCENTRICITY":0.0133916,"INCLINATION":98.4747,"RA_OF_ASC_NODE":342.1717,"ARG_OF_PERICENTER":238.2778,"MEAN_ANOMALY":120.5285,"EPHEMERIS_TYPE":0,"CLASSIFICATION_TYPE":"U","NORAD_CAT_ID":31772,"ELEMENT_SET_NO":999,"REV_AT_EPOCH":72047,"BSTAR":0.0013139,"MEAN_MOTION_DOT":2.584e-5,"MEAN_MOTION_DDOT":0},{"OBJECT_NAME":"FENGYUN 1C DEB","OBJECT_ID":"1999-025CFY","EPOCH":"2026-03-01T05:45:09.414720","MEAN_MOTION":14.75574315,"ECCENTRICITY":0.0037038,"INCLINATION":98.9546,"RA_OF_ASC_NODE":64.2905,"ARG_OF_PERICENTER":297.2989,"MEAN_ANOMALY":62.4448,"EPHEMERIS_TYPE":0,"CLASSIFICATION_TYPE":"U","NORAD_CAT_ID":31773,"ELEMENT_SET_NO":999,"REV_AT_EPOCH":66331,"BSTAR":0.0024578,"MEAN_MOTION_DOT":0.00016918,"MEAN_MOTION_DDOT":0},{"OBJECT_NAME":"FENGYUN 1C DEB","OBJECT_ID":"1999-025CGE","EPOCH":"2026-03-03T18:18:41.080608","MEAN_MOTION":14.41926282,"ECCENTRICITY":0.02119823,"INCLINATION":99.3024,"RA_OF_ASC_NODE":354.9592,"ARG_OF_PERICENTER":305.7075,"MEAN_ANOMALY":52.455,"EPHEMERIS_TYPE":0,"CLASSIFICATION_TYPE":"U","NORAD_CAT_ID":31779,"ELEMENT_SET_NO":999,"REV_AT_EPOCH":98177,"BSTAR":0.00064184318,"MEAN_MOTION_DOT":2.689e-5,"MEAN_MOTION_DDOT":0},{"OBJECT_NAME":"FENGYUN 1C DEB","OBJECT_ID":"1999-025CGF","EPOCH":"2026-03-05T16:46:22.534752","MEAN_MOTION":14.70071994,"ECCENTRICITY":0.0149317,"INCLINATION":99.2949,"RA_OF_ASC_NODE":233.7565,"ARG_OF_PERICENTER":158.2053,"MEAN_ANOMALY":202.5593,"EPHEMERIS_TYPE":0,"CLASSIFICATION_TYPE":"U","NORAD_CAT_ID":31780,"ELEMENT_SET_NO":999,"REV_AT_EPOCH":99716,"BSTAR":0.00074455,"MEAN_MOTION_DOT":5.245e-5,"MEAN_MOTION_DDOT":0}]
